[{"OBJECT_NAME":"ATLAS CENTAUR 2","OBJECT_ID":"1963-047A","EPOCH":"2026-03-07T15:19:33.138336","MEAN_MOTION":14.12060206,"ECCENTRICITY":0.05477421,"INCLINATION":30.3512,"RA_OF_ASC_NODE":207.1053,"ARG_OF_PERICENTER":62.2106,"MEAN_ANOMALY":303.2928,"EPHEMERIS_TYPE":0,"CLASSIFICATION_TYPE":"U","NORAD_CAT_ID":694,"ELEMENT_SET_NO":999,"REV_AT_EPOCH":13133,"BSTAR":0.00022633578,"MEAN_MOTION_DOT":1.929e-5,"MEAN_MOTION_DDOT":0},{"OBJECT_NAME":"THOR AGENA D R/B","OBJECT_ID":"1964-002A","EPOCH":"2026-03-07T15:19:07.227840","MEAN_MOTION":14.34018753,"ECCENTRICITY":0.00319206,"INCLINATION":99.1228,"RA_OF_ASC_NODE":79.864,"ARG_OF_PERICENTER":264.2595,"MEAN_ANOMALY":95.4949,"EPHEMERIS_TYPE":0,"CLASSIFICATION_TYPE":"U","NORAD_CAT_ID":733,"ELEMENT_SET_NO":999,"REV_AT_EPOCH":23800,"BSTAR":0.00012711128,"MEAN_MOTION_DOT":3.08e-6,"MEAN_MOTION_DDOT":0},{"OBJECT_NAME":"SL-3 R/B","OBJECT_ID":"1964-053B","EPOCH":"2026-03-07T05:28:42.851136","MEAN_MOTION":14.61366028,"ECCENTRICITY":0.0079666,"INCLINATION":65.0789,"RA_OF_ASC_NODE":338.4532,"ARG_OF_PERICENTER":293.0035,"MEAN_ANOMALY":66.2676,"EPHEMERIS_TYPE":0,"CLASSIFICATION_TYPE":"U","NORAD_CAT_ID":877,"ELEMENT_SET_NO":999,"REV_AT_EPOCH":26643,"BSTAR":0.0001168,"MEAN_MOTION_DOT":4.79e-6,"MEAN_MOTION_DDOT":0},{"OBJECT_NAME":"SL-8 R/B","OBJECT_ID":"1967-045B","EPOCH":"2026-03-07T11:58:30.690912","MEAN_MOTION":14.45620698,"ECCENTRICITY":0.00641167,"INCLINATION":74.014,"RA_OF_ASC_NODE":352.1799,"ARG_OF_PERICENTER":358.9788,"MEAN_ANOMALY":1.1228,"EPHEMERIS_TYPE":0,"CLASSIFICATION_TYPE":"U","NORAD_CAT_ID":2802,"ELEMENT_SET_NO":999,"REV_AT_EPOCH":8870,"BSTAR":0.000181311,"MEAN_MOTION_DOT":6.29e-6,"MEAN_MOTION_DDOT":0},{"OBJECT_NAME":"SL-8 R/B","OBJECT_ID":"1968-040B","EPOCH":"2026-03-07T15:31:06.335040","MEAN_MOTION":15.03242162,"ECCENTRICITY":0.0023895,"INCLINATION":74.0324,"RA_OF_ASC_NODE":317.8691,"ARG_OF_PERICENTER":142.5576,"MEAN_ANOMALY":217.7283,"EPHEMERIS_TYPE":0,"CLASSIFICATION_TYPE":"U","NORAD_CAT_ID":3230,"ELEMENT_SET_NO":999,"REV_AT_EPOCH":8970,"BSTAR":0.00034738027,"MEAN_MOTION_DOT":4.694e-5,"MEAN_MOTION_DDOT":0},{"OBJECT_NAME":"OAO 2","OBJECT_ID":"1968-110A","EPOCH":"2026-03-07T15:28:01.672320","MEAN_MOTION":14.47306774,"ECCENTRICITY":0.0005635,"INCLINATION":34.993,"RA_OF_ASC_NODE":276.6431,"ARG_OF_PERICENTER":189.1289,"MEAN_ANOMALY":170.93,"EPHEMERIS_TYPE":0,"CLASSIFICATION_TYPE":"U","NORAD_CAT_ID":3597,"ELEMENT_SET_NO":999,"REV_AT_EPOCH":1880,"BSTAR":0.00011113114,"MEAN_MOTION_DOT":3.93e-6,"MEAN_MOTION_DDOT":0},{"OBJECT_NAME":"ISIS 1","OBJECT_ID":"1969-009A","EPOCH":"2026-03-07T12:10:27.829920","MEAN_MOTION":11.30413513,"ECCENTRICITY":0.17078007,"INCLINATION":88.4545,"RA_OF_ASC_NODE":155.5467,"ARG_OF_PERICENTER":93.5639,"MEAN_ANOMALY":286.1341,"EPHEMERIS_TYPE":0,"CLASSIFICATION_TYPE":"U","NORAD_CAT_ID":3669,"ELEMENT_SET_NO":999,"REV_AT_EPOCH":34828,"BSTAR":0.00014940732,"MEAN_MOTION_DOT":2.33e-6,"MEAN_MOTION_DDOT":0},{"OBJECT_NAME":"SERT 2","OBJECT_ID":"1970-009A","EPOCH":"2026-03-07T11:59:37.611168","MEAN_MOTION":13.58729575,"ECCENTRICITY":0.0004959,"INCLINATION":99.2756,"RA_OF_ASC_NODE":9.7131,"ARG_OF_PERICENTER":160.9195,"MEAN_ANOMALY":310.6908,"EPHEMERIS_TYPE":0,"CLASSIFICATION_TYPE":"U","NORAD_CAT_ID":4327,"ELEMENT_SET_NO":999,"REV_AT_EPOCH":77959,"BSTAR":8.3189803e-5,"MEAN_MOTION_DOT":2.0e-7,"MEAN_MOTION_DDOT":0},{"OBJECT_NAME":"SL-3 R/B","OBJECT_ID":"1971-028B","EPOCH":"2026-03-07T14:31:15.656448","MEAN_MOTION":15.60918058,"ECCENTRICITY":0.00135857,"INCLINATION":81.2351,"RA_OF_ASC_NODE":54.6034,"ARG_OF_PERICENTER":294.766,"MEAN_ANOMALY":65.2179,"EPHEMERIS_TYPE":0,"CLASSIFICATION_TYPE":"U","NORAD_CAT_ID":5118,"ELEMENT_SET_NO":999,"REV_AT_EPOCH":98834,"BSTAR":0.00061457477,"MEAN_MOTION_DOT":0.00051892,"MEAN_MOTION_DDOT":0},{"OBJECT_NAME":"ASTEX 1","OBJECT_ID":"1971-089A","EPOCH":"2026-03-07T11:27:09.295488","MEAN_MOTION":14.50767326,"ECCENTRICITY":0.00178689,"INCLINATION":92.7125,"RA_OF_ASC_NODE":151.0444,"ARG_OF_PERICENTER":92.4002,"MEAN_ANOMALY":267.925,"EPHEMERIS_TYPE":0,"CLASSIFICATION_TYPE":"U","NORAD_CAT_ID":5560,"ELEMENT_SET_NO":999,"REV_AT_EPOCH":86198,"BSTAR":0.0001720091,"MEAN_MOTION_DOT":6.77e-6,"MEAN_MOTION_DDOT":0},{"OBJECT_NAME":"SL-8 R/B","OBJECT_ID":"1971-119B","EPOCH":"2026-03-07T15:21:04.467456","MEAN_MOTION":14.37796412,"ECCENTRICITY":0.0549192,"INCLINATION":73.8877,"RA_OF_ASC_NODE":179.5501,"ARG_OF_PERICENTER":146.6183,"MEAN_ANOMALY":217.0909,"EPHEMERIS_TYPE":0,"CLASSIFICATION_TYPE":"U","NORAD_CAT_ID":5730,"ELEMENT_SET_NO":999,"REV_AT_EPOCH":65519,"BSTAR":0.00086875585,"MEAN_MOTION_DOT":0.00016723,"MEAN_MOTION_DDOT":0},{"OBJECT_NAME":"OAO 3 (COPERNICUS)","OBJECT_ID":"1972-065A","EPOCH":"2026-03-07T10:20:39.947424","MEAN_MOTION":14.5999631,"ECCENTRICITY":0.0006217,"INCLINATION":35.0062,"RA_OF_ASC_NODE":310.185,"ARG_OF_PERICENTER":147.9985,"MEAN_ANOMALY":19.0325,"EPHEMERIS_TYPE":0,"CLASSIFICATION_TYPE":"U","NORAD_CAT_ID":6153,"ELEMENT_SET_NO":999,"REV_AT_EPOCH":84586,"BSTAR":0.00011780718,"MEAN_MOTION_DOT":5.53e-6,"MEAN_MOTION_DDOT":0},{"OBJECT_NAME":"ATLAS CENTAUR R/B","OBJECT_ID":"1972-065B","EPOCH":"2026-03-07T01:24:03.195648","MEAN_MOTION":14.77677625,"ECCENTRICITY":0.00338456,"INCLINATION":35.0024,"RA_OF_ASC_NODE":321.1746,"ARG_OF_PERICENTER":346.7001,"MEAN_ANOMALY":13.2805,"EPHEMERIS_TYPE":0,"CLASSIFICATION_TYPE":"U","NORAD_CAT_ID":6155,"ELEMENT_SET_NO":999,"REV_AT_EPOCH":84087,"BSTAR":0.00021240528,"MEAN_MOTION_DOT":1.537e-5,"MEAN_MOTION_DDOT":0},{"OBJECT_NAME":"SL-8 R/B","OBJECT_ID":"1975-112B","EPOCH":"2026-03-07T14:59:58.483680","MEAN_MOTION":14.38202305,"ECCENTRICITY":0.00144861,"INCLINATION":74.0624,"RA_OF_ASC_NODE":22.7095,"ARG_OF_PERICENTER":116.8208,"MEAN_ANOMALY":243.443,"EPHEMERIS_TYPE":0,"CLASSIFICATION_TYPE":"U","NORAD_CAT_ID":8459,"ELEMENT_SET_NO":999,"REV_AT_EPOCH":63157,"BSTAR":0.00012521724,"MEAN_MOTION_DOT":3.55e-6,"MEAN_MOTION_DDOT":0},{"OBJECT_NAME":"SL-3 R/B","OBJECT_ID":"1977-057B","EPOCH":"2026-03-07T13:58:31.944288","MEAN_MOTION":15.45420591,"ECCENTRICITY":0.00061712,"INCLINATION":97.5771,"RA_OF_ASC_NODE":238.4101,"ARG_OF_PERICENTER":293.9439,"MEAN_ANOMALY":66.1162,"EPHEMERIS_TYPE":0,"CLASSIFICATION_TYPE":"U","NORAD_CAT_ID":10114,"ELEMENT_SET_NO":999,"REV_AT_EPOCH":66800,"BSTAR":0.00037959131,"MEAN_MOTION_DOT":0.0001809,"MEAN_MOTION_DDOT":0},{"OBJECT_NAME":"SEASAT 1","OBJECT_ID":"1978-064A","EPOCH":"2026-03-07T15:04:59.456352","MEAN_MOTION":14.46158255,"ECCENTRICITY":0.00022422,"INCLINATION":108.0113,"RA_OF_ASC_NODE":121.1744,"ARG_OF_PERICENTER":286.3352,"MEAN_ANOMALY":73.7547,"EPHEMERIS_TYPE":0,"CLASSIFICATION_TYPE":"U","NORAD_CAT_ID":10967,"ELEMENT_SET_NO":999,"REV_AT_EPOCH":50621,"BSTAR":0.00012844405,"MEAN_MOTION_DOT":3.22e-6,"MEAN_MOTION_DDOT":0},{"OBJECT_NAME":"SL-14 R/B","OBJECT_ID":"1979-011B","EPOCH":"2026-03-07T13:38:28.658400","MEAN_MOTION":14.91905591,"ECCENTRICITY":0.00174835,"INCLINATION":82.5211,"RA_OF_ASC_NODE":98.5844,"ARG_OF_PERICENTER":67.0238,"MEAN_ANOMALY":293.2824,"EPHEMERIS_TYPE":0,"CLASSIFICATION_TYPE":"U","NORAD_CAT_ID":11267,"ELEMENT_SET_NO":999,"REV_AT_EPOCH":52846,"BSTAR":7.2492797e-5,"MEAN_MOTION_DOT":7.6e-6,"MEAN_MOTION_DDOT":0}]
