ATLAS CENTAUR 2         
1 00694U 63047A   26066.63857799  .00001929  00000+0  22634-3 0  9993
2 00694  30.3512 207.1053 0547742  62.2106 303.2928 14.12060206131339
THOR AGENA D R/B        
1 00733U 64002A   26066.63827810  .00000308  00000+0  12711-3 0  9995
2 00733  99.1228  79.8640 0031920 264.2595  95.4949 14.34018753238007
SL-3 R/B                
1 00877U 64053B   26066.22827374  .00000479  00000+0  11680-3 0  9993
2 00877  65.0789 338.4532 0079666 293.0035  66.2676 14.61366028266434
SL-8 R/B                
1 02802U 67045B   26066.49896633  .00000629  00000+0  18131-3 0  9995
2 02802  74.0140 352.1799 0064116 358.9788   1.1228 14.45620698 88704
SL-8 R/B                
1 03230U 68040B   26066.64660110  .00004694  00000+0  34738-3 0  9990
2 03230  74.0324 317.8691 0023895 142.5576 217.7283 15.03242162 89702
OAO 2                   
1 03597U 68110A   26066.64446380  .00000393  00000+0  11113-3 0  9999
2 03597  34.9930 276.6431 0005635 189.1289 170.9300 14.47306774 18800
ISIS 1                  
1 03669U 69009A   26066.50726655  .00000233  00000+0  14941-3 0  9993
2 03669  88.4545 155.5467 1707800  93.5639 286.1341 11.30413513348283
SERT 2                  
1 04327U 70009A   26066.49974087  .00000020  00000+0  83190-4 0  9996
2 04327  99.2756   9.7131 0004959 160.9195 310.6908 13.58729575779591
SL-3 R/B                
1 05118U 71028B   26066.60504232  .00051892  00000+0  61457-3 0  9995
2 05118  81.2351  54.6034 0013585 294.7660  65.2179 15.60918058988340
ASTEX 1                 
1 05560U 71089A   26066.47719092  .00000677  00000+0  17201-3 0  9993
2 05560  92.7125 151.0444 0017868  92.4002 267.9250 14.50767326861984
SL-8 R/B                
1 05730U 71119B   26066.63963504  .00016723  00000+0  86876-3 0  9996
2 05730  73.8877 179.5501 0549192 146.6183 217.0909 14.37796412655192
OAO 3 (COPERNICUS)      
1 06153U 72065A   26066.43101791  .00000553  00000+0  11781-3 0  9994
2 06153  35.0062 310.1850 0006217 147.9985  19.0325 14.59996310845868
ATLAS CENTAUR R/B       
1 06155U 72065B   26066.05837032  .00001537  00000+0  21241-3 0  9993
2 06155  35.0024 321.1746 0033845 346.7001  13.2805 14.77677625840879
SL-8 R/B                
1 08459U 75112B   26066.62498245  .00000355  00000+0  12522-3 0  9999
2 08459  74.0624  22.7095 0014486 116.8208 243.4430 14.38202305631575
SL-3 R/B                
1 10114U 77057B   26066.58231417  .00018090  00000+0  37959-3 0  9997
2 10114  97.5771 238.4101 0006171 293.9439  66.1162 15.45420591668006
SEASAT 1                
1 10967U 78064A   26066.62846593  .00000322  00000+0  12844-3 0  9999
2 10967 108.0113 121.1744 0002242 286.3352  73.7547 14.46158255506216
SL-14 R/B               
1 11267U 79011B   26066.56838725  .00000760  00000+0  72493-4 0  9990
2 11267  82.5211  98.5844 0017483  67.0238 293.2824 14.91905591528464
